NORAD_CAT_ID,OBJECT_NAME,OBJECT_TYPE,EPOCH,MEAN_MOTION,ECCENTRICITY,INCLINATION,RA_OF_ASC_NODE,ARG_OF_PERICENTER,MEAN_ANOMALY,BSTAR,MEAN_MOTION_DOT,MEAN_MOTION_DDOT,TLE_LINE0,TLE_LINE1,TLE_LINE2,SEMIMAJOR_AXIS,PERIOD,APOGEE,PERIGEE,DECAYED
54074.0,STARLINK-5192,PAYLOAD,2023-10-05 13:23:46,15.08847542,0.0001607,53.2179,1.7368,86.2976,273.82,0.00016485,2.337e-05,0.0,0 STARLINK-5192,1 54074U 22136Z   23278.55817486  .00002337  00000-0  16485-3 0  9992,2 54074  53.2179   1.7368 0001607  86.2976 273.8200 15.08847542 53077,6917.857,95.437,540.834,538.611,0.0
54074.0,STARLINK-5192,PAYLOAD,2023-10-06 10:03:47,15.08835834,0.0001815,53.2182,357.8736,69.4102,290.7085,2.2774e-05,7.4e-07,0.0,0 STARLINK-5192,1 54074U 22136Z   23279.41930403  .00000074  00000-0  22774-4 0  9998,2 54074  53.2182 357.8736 0001815  69.4102 290.7085 15.08835834 53687,6917.893,95.438,541.014,538.503,0.0
54074.0,STARLINK-5192,PAYLOAD,2023-10-06 11:39:10,15.0884174,0.0001657,53.2172,357.5743,81.9725,278.1456,5.2976e-05,5.55e-06,0.0,0 STARLINK-5192,1 54074U 22136Z   23279.48554131  .00000555  00000-0  52976-4 0  9996,2 54074  53.2172 357.5743 0001657  81.9725 278.1456 15.08841740 53219,6917.875,95.437,540.886,538.594,0.0
54074.0,STARLINK-5192,PAYLOAD,2023-10-07 11:29:57,15.08847456,0.0001602,53.2171,353.1136,91.2687,268.8489,0.00036293,5.494e-05,0.0,0 STARLINK-5192,1 54074U 22136Z   23280.47914114  .00005494  00000-0  36293-3 0  9998,2 54074  53.2171 353.1136 0001602  91.2687 268.8489 15.08847456 53848,6917.858,95.437,540.831,538.614,0.0
54074.0,STARLINK-5192,PAYLOAD,2023-10-08 09:45:21,15.08843033,0.0001729,53.2185,348.9509,99.6521,260.4666,0.00014168,1.968e-05,0.0,0 STARLINK-5192,1 54074U 22136Z   23281.40650167  .00001968  00000-0  14168-3 0  9996,2 54074  53.2185 348.9509 0001729  99.6521 260.4666 15.08843033 53985,6917.871,95.437,540.932,538.54,0.0
54074.0,STARLINK-5192,PAYLOAD,2023-10-08 11:20:44,15.08845081,0.0001574,53.2175,348.6539,83.8769,276.2403,0.00017449,2.49e-05,0.0,0 STARLINK-5192,1 54074U 22136Z   23281.47274164  .00002490  00000-0  17449-3 0  9998,2 54074  53.2175 348.6539 0001574  83.8769 276.2403 15.08845081 53519,6917.865,95.437,540.819,538.641,0.0
54074.0,STARLINK-5192,PAYLOAD,2023-10-09 08:00:45,15.08839118,0.0001361,53.2172,344.7888,72.7954,287.3187,4.7025e-05,4.61e-06,0.0,0 STARLINK-5192,1 54074U 22136Z   23282.33386521  .00000461  00000-0  47025-4 0  9995,2 54074  53.2172 344.7888 0001361  72.7954 287.3187 15.08839118 54121,6917.883,95.438,540.69,538.807,0.0
54074.0,STARLINK-5192,PAYLOAD,2023-10-09 11:11:31,15.08845941,0.0001591,53.2176,344.1939,86.0078,274.1096,7.9531e-05,9.78e-06,0.0,0 STARLINK-5192,1 54074U 22136Z   23282.46634098  .00000978  00000-0  79531-4 0  9994,2 54074  53.2176 344.1939 0001591  86.0078 274.1096 15.08845941 53668,6917.862,95.437,540.828,538.627,0.0
54074.0,STARLINK-5192,PAYLOAD,2023-10-10 11:02:18,15.08851881,0.0001592,53.2179,339.734,88.0757,272.0418,0.00019729,2.854e-05,0.0,0 STARLINK-5192,1 54074U 22136Z   23283.45993841  .00002854  00000-0  19729-3 0  9995,2 54074  53.2179 339.7340 0001592  88.0757 272.0418 15.08851881 53816,6917.844,95.437,540.81,538.608,0.0
54074.0,STARLINK-5192,PAYLOAD,2023-10-11 12:28:29,15.08836703,0.0001648,53.2169,334.9741,78.0227,282.095,8.4861e-06,-1.53e-06,0.0,0 STARLINK-5192,1 54074U 22136Z   23284.51978988 -.00000153  00000-0  84861-5 0  9990,2 54074  53.2169 334.9741 0001648  78.0227 282.0950 15.08836703 54459,6917.89,95.438,540.896,538.615,0.0
54074.0,STARLINK-5192,PAYLOAD,2023-10-12 10:43:53,15.08847208,0.0001652,53.2165,330.8114,85.986,274.1321,0.00029968,4.486e-05,0.0,0 STARLINK-5192,1 54074U 22136Z   23285.44714754  .00004486  00000-0  29968-3 0  9999,2 54074  53.2165 330.8114 0001652  85.9860 274.1321 15.08847208 54118,6917.858,95.437,540.866,538.581,0.0
54074.0,STARLINK-5192,PAYLOAD,2023-10-12 20:16:12,15.0884241,0.0001782,53.2168,329.0275,86.669,273.4506,0.00021664,3.162e-05,0.0,0 STARLINK-5192,1 54074U 22136Z   23285.84458922  .00003162  00000-0  21664-3 0  9990,2 54074  53.2168 329.0275 0001782  86.6690 273.4506 15.08842410 54175,6917.873,95.437,540.971,538.505,0.0
54074.0,STARLINK-5192,PAYLOAD,2023-10-13 02:37:45,15.08839547,0.0002026,53.2171,327.8384,83.4569,276.6653,0.00016771,2.382e-05,0.0,0 STARLINK-5192,1 54074U 22136Z   23286.10955371  .00002382  00000-0  16771-3 0  9996,2 54074  53.2171 327.8384 0002026  83.4569 276.6653 15.08839547 54690,6917.882,95.438,541.148,538.345,0.0
54074.0,STARLINK-5192,PAYLOAD,2023-10-13 10:34:40,15.08843214,0.0001996,53.2174,326.3528,78.8486,281.273,0.00021163,3.082e-05,0.0,0 STARLINK-5192,1 54074U 22136Z   23286.44075227  .00003082  00000-0  21163-3 0  9995,2 54074  53.2174 326.3528 0001996  78.8486 281.2730 15.08843214 54265,6917.871,95.437,541.116,538.355,0.0
54074.0,STARLINK-5192,PAYLOAD,2023-10-14 08:50:04,15.08853853,0.0001905,53.2166,322.1881,97.459,262.6618,0.00019303,2.786e-05,0.0,0 STARLINK-5192,1 54074U 22136Z   23287.36810367  .00002786  00000-0  19303-3 0  9992,2 54074  53.2166 322.1881 0001905  97.4590 262.6618 15.08853853 54881,6917.838,95.437,541.021,538.385,0.0
54074.0,STARLINK-5192,PAYLOAD,2023-10-14 19:57:47,15.08835364,0.0001836,53.2169,320.1082,84.9184,275.2017,-3.2307e-05,-8.02e-06,0.0,0 STARLINK-5192,1 54074U 22136Z   23287.83179416 -.00000802  00000-0 -32307-4 0  9996,2 54074  53.2169 320.1082 0001836  84.9184 275.2017 15.08835364 54956,6917.895,95.438,541.03,538.489,0.0
54074.0,STARLINK-5192,PAYLOAD,2023-10-15 08:40:52,15.08824102,0.000171,53.2167,317.728,92.3219,267.7969,-0.00016232,-2.869e-05,0.0,0 STARLINK-5192,1 54074U 22136Z   23288.36172346 -.00002869  00000-0 -16232-3 0  9993,2 54074  53.2167 317.7280 0001710  92.3219 267.7969 15.08824102 55039,6917.929,95.439,540.977,538.611,0.0
54074.0,STARLINK-5192,PAYLOAD,2023-10-16 08:31:39,15.08850988,0.0001595,53.2165,313.2676,92.56,267.5575,0.00047611,7.3e-05,0.0,0 STARLINK-5192,1 54074U 22136Z   23289.35531770  .00007300  00000-0  47611-3 0  9991,2 54074  53.2165 313.2676 0001595  92.5600 267.5575 15.08850988 55182,6917.847,95.437,540.815,538.608,0.0
54074.0,STARLINK-5192,PAYLOAD,2023-10-17 06:47:03,15.08855291,0.0001612,53.2162,309.1045,90.7616,269.3561,0.00045964,7.038e-05,0.0,0 STARLINK-5192,1 54074U 22136Z   23290.28267673  .00007038  00000-0  45964-3 0  9990,2 54074  53.2162 309.1045 0001612  90.7616 269.3561 15.08855291 55323,6917.834,95.437,540.814,538.583,0.0
54074.0,STARLINK-5192,PAYLOAD,2023-10-18 01:51:40,15.08847544,0.0001807,53.2175,305.5372,97.3297,262.79,2.2163e-05,6.5e-07,0.0,0 STARLINK-5192,1 54074U 22136Z   23291.07755395  .00000065  00000-0  22163-4 0  9991,2 54074  53.2175 305.5372 0001807  97.3297 262.7900 15.08847544 54969,6917.857,95.437,540.972,538.472,0.0
54074.0,STARLINK-5192,PAYLOAD,2023-10-18 05:02:27,15.0883912,0.000173,53.2175,304.9421,99.2928,260.8259,-0.00013642,-2.459e-05,0.0,0 STARLINK-5192,1 54074U 22136Z   23291.21003644 -.00002459  00000-0 -13642-3 0  9992,2 54074  53.2175 304.9421 0001730  99.2928 260.8259 15.08839120 55467,6917.883,95.438,540.945,538.551,0.0
54074.0,STARLINK-5192,PAYLOAD,2023-10-18 17:45:32,15.08841922,0.0001716,53.2176,302.5634,99.1421,260.9766,-4.0321e-05,-9.3e-06,0.0,0 STARLINK-5192,1 54074U 22136Z   23291.73995729 -.00000930  00000-0 -40321-4 0  9990,2 54074  53.2176 302.5634 0001716  99.1421 260.9766 15.08841922 55062,6917.875,95.437,540.927,538.552,0.0
54074.0,STARLINK-5192,PAYLOAD,2023-10-19 08:04:00,15.08849678,0.000165,53.2169,299.8861,98.6683,261.4496,0.00011487,1.541e-05,0.0,0 STARLINK-5192,1 54074U 22136Z   23292.33611258  .00001541  00000-0  11487-3 0  9996,2 54074  53.2169 299.8861 0001650  98.6683 261.4496 15.08849678 55630,6917.851,95.437,540.857,538.574,0.0
54074.0,STARLINK-5192,PAYLOAD,2023-10-19 17:36:18,15.08848328,0.0001596,53.2165,298.1005,85.2164,274.901,0.00011318,1.514e-05,0.0,0 STARLINK-5192,1 54074U 22136Z   23292.73355297  .00001514  00000-0  11318-3 0  9991,2 54074  53.2165 298.1005 0001596  85.2164 274.9010 15.08848328 55219,6917.855,95.437,540.824,538.616,0.0
54074.0,STARLINK-5192,PAYLOAD,2023-10-20 04:44:01,15.08833542,0.0002245,53.2175,296.0193,87.5026,272.6223,5.1917e-05,5.38e-06,0.0,0 STARLINK-5192,1 54074U 22136Z   23293.19724351  .00000538  00000-0  51917-4 0  9998,2 54074  53.2175 296.0193 0002245  87.5026 272.6223 15.08833542 55762,6917.9,95.438,541.318,538.212,0.0
54074.0,STARLINK-5192,PAYLOAD,2023-10-20 07:54:48,15.0883446,0.0001642,53.2174,295.4248,89.5203,270.5978,8.7951e-05,1.112e-05,0.0,0 STARLINK-5192,1 54074U 22136Z   23293.32972515  .00001112  00000-0  87951-4 0  9996,2 54074  53.2174 295.4248 0001642  89.5203 270.5978 15.08834460 55308,6917.897,95.438,540.898,538.626,0.0
54074.0,STARLINK-5192,PAYLOAD,2023-10-21 06:10:12,15.08839396,0.0001668,53.2173,291.2608,96.6068,263.5114,3.5286e-05,2.74e-06,0.0,0 STARLINK-5192,1 54074U 22136Z   23294.25708570  .00000274  00000-0  35286-4 0  9999,2 54074  53.2173 291.2608 0001668  96.6068 263.5114 15.08839396 55922,6917.882,95.438,540.901,538.593,0.0
54074.0,STARLINK-5192,PAYLOAD,2023-10-21 17:17:53,15.08846615,0.0001609,53.2178,289.1783,91.5889,268.5287,8.9748e-05,1.141e-05,0.0,0 STARLINK-5192,1 54074U 22136Z   23294.72075912  .00001141  00000-0  89748-4 0  9994,2 54074  53.2178 289.1783 0001609  91.5889 268.5287 15.08846615 55992,6917.86,95.437,540.838,538.612,0.0
54074.0,STARLINK-5192,PAYLOAD,2023-10-22 06:00:58,15.08854464,0.0001562,53.2163,286.7994,98.4544,261.6625,0.00035586,5.382e-05,0.0,0 STARLINK-5192,1 54074U 22136Z   23295.25067557  .00005382  00000-0  35586-3 0  9990,2 54074  53.2163 286.7994 0001562  98.4544 261.6625 15.08854464 55592,6917.836,95.437,540.782,538.621,0.0
54074.0,STARLINK-5192,PAYLOAD,2023-10-22 17:08:40,15.08841486,0.0001577,53.2166,284.7172,97.9717,262.1454,0.00017555,2.507e-05,0.0,0 STARLINK-5192,1 54074U 22136Z   23295.71436202  .00002507  00000-0  17555-3 0  9990,2 54074  53.2166 284.7172 0001577  97.9717 262.1454 15.08841486 56141,6917.876,95.437,540.832,538.65,0.0
